FENGYUN 2E              
1 33463U 08066A   24117.39061725 -.00000013  00000+0  00000+0 0  9990
2 33463   7.4666  60.9682 0002540  19.1717 183.4744  0.99118631 56255
NOAA 19                 
1 33591U 09005A   24117.82204892  .00000532  00000+0  30977-3 0  9993
2 33591  99.0514 173.0686 0014817  78.9011 281.3826 14.12982632784376
GOES 14                 
1 35491U 09033A   24117.62120779 -.00000051  00000+0  00000+0 0  9991
2 35491   0.2174 110.1378 0003612 317.2330 262.7625  1.00270818 54310
DMSP 5D-3 F18 (USA 210) 
1 35951U 09057A   24117.89556938  .00000842  00000+0  46522-3 0  9997
2 35951  98.8111  93.9461 0010367 318.1602  41.8778 14.14081402749115
EWS-G2 (GOES 15)        
1 36411U 10008A   24117.85813299  .00000051  00000+0  00000+0 0  9998
2 36411   0.1644  90.5974 0001292 196.3132 298.7311  1.00275354 51795
COMS 1                  
1 36744U 10032A   24117.53780787 -.00000329  00000+0  00000+0 0  9993
2 36744   2.7965  85.0958 0000989 319.6663 131.9992  1.00273431 43259
FENGYUN 3B              
1 37214U 10059A   24117.79393470  .00000251  00000+0  15448-3 0  9991
2 37214  99.0597 145.1592 0021309 236.3532 240.6830 14.14478519696989
SUOMI NPP               
1 37849U 11061A   24117.80086610  .00000345  00000+0  18439-3 0  9993
2 37849  98.7194  56.5594 0001704  77.3792 282.7575 14.19555633647579
FENGYUN 2F              
1 38049U 12002A   24117.52557943 -.00000341  00000+0  00000+0 0  9991
2 38049   5.4664  73.6208 0003167  51.7011  30.7771  1.00264209 45041
METEOSAT-10 (MSG-3)     
1 38552U 12035B   24117.83854963  .00000008  00000+0  00000+0 0  9991
2 38552   2.8505  60.5307 0002201 300.1811 156.5717  1.00269247 43386
METOP-B                 
1 38771U 12049A   24117.86154008  .00000471  00000+0  23489-3 0  9999
2 38771  98.6314 176.2247 0001484 123.9899 236.1419 14.21515534602258
INSAT-3D                
1 39216U 13038B   24117.59684420 -.00000143  00000+0  00000+0 0  9996
2 39216   0.0064 254.0377 0001076  66.4402 191.5651  1.00273901 39246
FENGYUN 3C              
1 39260U 13052A   24117.80349643  .00000355  00000+0  19973-3 0  9997
2 39260  98.4295 120.1344 0012249 112.9700 247.2769 14.16186888548052
METEOR-M 2              
1 40069U 14037A   24117.83892552  .00000503  00000+0  25116-3 0  9996
2 40069  98.4364 114.3752 0006505 138.6146 221.5525 14.20942061508333
HIMAWARI-8              
1 40267U 14060A   24117.86625252 -.00000261  00000+0  00000+0 0  9999
2 40267   0.0462 121.1520 0001132 287.1415 259.5795  1.00271765 35032
FENGYUN 2G              
1 40367U 14090A   24117.60706867 -.00000287  00000+0  00000+0 0  9995
2 40367   3.6584  82.0894 0002481  72.8501  18.3764  1.00268161 34165
METEOSAT-11 (MSG-4)     
1 40732U 15034A   24116.19392822  .00000082  00000+0  00000+0 0  9997
2 40732   1.2604  67.6296 0000821 231.7680 353.8368  1.00281927 32163
ELEKTRO-L 2             
1 41105U 15074A   24117.26292089 -.00000100  00000+0  00000+0 0  9991
2 41105   4.7096  80.0602 0001264 229.9677 344.8574  1.00273075 30665
INSAT-3DR               
1 41752U 16054A   24117.11021681 -.00000063  00000+0  00000+0 0  9998
2 41752   0.1578  88.6422 0010542 188.0374  51.6194  1.00272426 27970
HIMAWARI-9              
1 41836U 16064A   24117.43687649 -.00000261  00000+0  00000+0 0  9999
2 41836   0.0360  85.3789 0001054 338.9730  88.5945  1.00269544 27375
GOES 16                 
1 41866U 16071A   24117.53716226 -.00000233  00000+0  00000+0 0  9994
2 41866   0.0280 280.0282 0000799 143.2739 269.9014  1.00271296 27269
FENGYUN 4A              
1 41882U 16077A   24117.59882726 -.00000183  00000+0  00000+0 0  9997
2 41882   0.3269  83.3257 0008897 344.6100  89.3646  1.00264457 27096
CYGFM05                 
1 41884U 16078A   24117.54263049  .00016335  00000+0  62251-3 0  9991
2 41884  34.9545 267.7650 0011834  84.0136 276.1927 15.25791407408185
CYGFM04                 
1 41885U 16078B   24117.69216277  .00018031  00000+0  66888-3 0  9994
2 41885  34.9475 251.3767 0009468 111.7829 248.3894 15.26689148408456
CYGFM02                 
1 41886U 16078C   24117.66134905  .00017688  00000+0  64993-3 0  9991
2 41886  34.9542 253.9393 0012549  99.4969 260.7165 15.26972978408440
CYGFM01                 
1 41887U 16078D   24117.71150866  .00016303  00000+0  62669-3 0  9993
2 41887  34.9490 270.4073 0012117  77.8935 282.3137 15.25501379408267
CYGFM08                 
1 41888U 16078E   24117.69736383  .00018377  00000+0  68552-3 0  9995
2 41888  34.9462 259.1774 0012713 101.4103 258.8040 15.26468542408347
CYGFM07                 
1 41890U 16078G   24117.55457928  .00018007  00000+0  66602-3 0  9992
2 41890  34.9496 251.6902 0009196 108.9463 251.2249 15.26788235408284
CYGFM03                 
1 41891U 16078H   24117.52106629  .00016959  00000+0  62869-3 0  9994
2 41891  34.9516 253.0330 0010495  92.1371 268.0546 15.26710210408267
FENGYUN 3D              
1 43010U 17072A   24117.70424653  .00000391  00000+0  20797-3 0  9991
2 43010  98.9069  72.0700 0002477 107.4577 252.6869 14.19325573334118
NOAA 20 (JPSS-1)        
1 43013U 17073A   24117.67808620  .00000292  00000+0  15927-3 0  9990
2 43013  98.7036  56.4695 0001616  48.6881 311.4435 14.19570918333599
GOES 17                 
1 43226U 18022A   24117.49281038 -.00000076  00000+0  00000+0 0  9992
2 43226   0.0032 353.0457 0000862  38.5677 256.0841  1.00271915 22593
FENGYUN 2H              
1 43491U 18050A   24117.63947692 -.00000115  00000+0  00000+0 0  9992
2 43491   1.0088  87.5477 0001408  11.2461  65.8204  1.00274029 21672
METOP-C                 
1 43689U 18087A   24117.68706395  .00000433  00000+0  21811-3 0  9998
2 43689  98.7275 177.5549 0001484 205.6494 154.4610 14.21481117283807
GEO-KOMPSAT-2A          
1 43823U 18100A   24117.53863831 -.00000329  00000+0  00000+0 0  9995
2 43823   0.0568  79.1875 0002220 349.8633 108.1451  1.00273095 19793
METEOR-M2 2             
1 44387U 19038A   24117.64261968  .00000202  00000+0  10783-3 0  9999
2 44387  98.8233  86.6757 0002368  99.2254 260.9192 14.23876044250050
ARKTIKA-M 1             
1 47719U 21016A   24116.41448032  .00000157  00000+0  00000+0 0  9999
2 47719  63.1363 157.7950 6925103 268.8111  18.0420  2.00603176 23082
FENGYUN 3E              
1 49008U 21062A   24117.83059794  .00000141  00000+0  87088-4 0  9992
2 49008  98.7332 119.7990 0001966 143.4287 216.7024 14.19746401145708
GOES 18                 
1 51850U 22021A   24117.02377255  .00000112  00000+0  00000+0 0  9994
2 51850   0.0046  34.1024 0000446   0.7080  51.2621  1.00272532  7921
NOAA 21 (JPSS-2)        
1 54234U 22150A   24117.71176995  .00000381  00000+0  20149-3 0  9998
2 54234  98.7490  56.2164 0000717  65.6229 294.5022 14.19556059 75670
METEOSAT-12 (MTG-I1)    
1 54743U 22170C   24117.69523112  .00000007  00000+0  00000+0 0  9994
2 54743   0.4388  28.4891 0001287  31.6221  44.9563  1.00274448  5133
TIANMU-1 03             
1 55973U 23039A   24117.65641627  .00017649  00000+0  70423-3 0  9993
2 55973  97.4634 268.4834 0011191 290.6811  69.3227 15.25177964 61002
TIANMU-1 04             
1 55974U 23039B   24117.63948183  .00018609  00000+0  74327-3 0  9993
2 55974  97.4555 268.0821 0008325 290.1099  69.9243 15.25157937 60994
TIANMU-1 05             
1 55975U 23039C   24117.69084799  .00018804  00000+0  75154-3 0  9990
2 55975  97.4605 268.4224 0004520 283.2184  76.8550 15.25157747 60990
TIANMU-1 06             
1 55976U 23039D   24117.87217101  .00019401  00000+0  77516-3 0  9994
2 55976  97.4620 268.7093 0003980 285.0971  74.9826 15.25162981 61024
METEOR-M2 3             
1 57166U 23091A   24117.67797872  .00000116  00000+0  69711-4 0  9993
2 57166  98.7172 172.8019 0002843 282.0316  78.0544 14.23886064 43296
TIANMU-1 07             
1 57399U 23101A   24117.83559775  .00012554  00000+0  64977-3 0  9996
2 57399  97.3668 176.4471 0005196  26.3420 333.8076 15.16349412 42644
TIANMU-1 08             
1 57400U 23101B   24117.80550175  .00011468  00000+0  59340-3 0  9992
2 57400  97.3656 176.2971 0007549  26.1768 333.9845 15.16367968 42634
TIANMU-1 09             
1 57401U 23101C   24117.85324330  .00012463  00000+0  64532-3 0  9995
2 57401  97.3609 176.2188 0007801  20.4130 339.7413 15.16321165 42649
TIANMU-1 10             
1 57402U 23101D   24117.81871033  .00012316  00000+0  63779-3 0  9998
2 57402  97.3693 176.4080 0009972  17.3349 342.8223 15.16303745 42631
FENGYUN 3F              
1 57490U 23111A   24117.78719007  .00000332  00000+0  17769-3 0  9997
2 57490  98.7719 187.3863 0000740 143.5213 216.6014 14.19799594 37978
TIANMU-1 11             
1 58645U 23205A   24117.79110502  .00008954  00000+0  49074-3 0  9992
2 58645  97.4074 144.2230 0010674 213.7359 146.3195 15.14374260 18736
TIANMU-1 12             
1 58646U 23205B   24117.60920168  .00010193  00000+0  55812-3 0  9995
2 58646  97.4061 143.9852 0009459 205.1181 154.9592 15.14378907 18699
TIANMU-1 13             
1 58647U 23205C   24117.64168877  .00009307  00000+0  51007-3 0  9998
2 58647  97.4087 143.9914 0009891 190.0611 170.0425 15.14366880 18698
TIANMU-1 14             
1 58648U 23205D   24117.62573743  .00010361  00000+0  56719-3 0  9996
2 58648  97.4013 143.8907 0010338 191.4718 168.6280 15.14375669 18697
TIANMU-1 19             
1 58660U 23208A   24117.62837927  .00012352  00000+0  67963-3 0  9995
2 58660  97.4059 231.3567 0009897 176.4228 183.7076 15.14152402 18366
TIANMU-1 20             
1 58661U 23208B   24117.65919076  .00013616  00000+0  73172-3 0  9998
2 58661  97.3988 231.3474 0010402 187.3933 172.7148 15.14963677 18375
TIANMU-1 21             
1 58662U 23208C   24117.61509346  .00013840  00000+0  72704-3 0  9999
2 58662  97.4024 231.4710 0010112 187.8928 172.2148 15.15770619 18377
